{"type": "FeatureCollection", "features": [ {"type": "Feature", "properties": {"norad_id": 40534, "name": "GPS BIIF-9  (PRN 26)", "group": "gps-ops", "lat": -42.14560398883785, "lon": 74.3274489350161, "alt_km": 20457.754514495224, "timestamp": "2025-12-17T21:39:45.947150+00:00", "meta": {"OBJECT_NAME": "GPS BIIF-9  (PRN 26)", "OBJECT_ID": "2015-013A", "EPOCH": "2025-12-17T13:48:02.835648", "MEAN_MOTION": 2.00562371, "ECCENTRICITY": 0.01072439, "INCLINATION": 53.197, "RA_OF_ASC_NODE": 211.6899, "ARG_OF_PERICENTER": 38.596, "MEAN_ANOMALY": 322.2597, "EPHEMERIS_TYPE": 0, "CLASSIFICATION_TYPE": "U", "NORAD_CAT_ID": 40534, "ELEMENT_SET_NO": 999, "REV_AT_EPOCH": 7818, "BSTAR": 0, "MEAN_MOTION_DOT": 8.5e-07, "MEAN_MOTION_DDOT": 0}, "tle": {"line1": "1 40534U 15013A   25351.57503282  .00000085  00000+0  00000+0 0  9995", "line2": "2 40534  53.1970 211.6899 0107243  38.5960 322.2597  2.00562371 78187"}}, "geometry": {"type": "Point", "coordinates": [74.3274489350161, -42.14560398883785]}}, {"type": "Feature", "properties": {"norad_id": 40730, "name": "GPS BIIF-10 (PRN 08)", "group": "gps-ops", "lat": 43.43310541438351, "lon": 51.38229426153209, "alt_km": 20199.830032496644, "timestamp": "2025-12-17T21:39:45.947160+00:00", "meta": {"OBJECT_NAME": "GPS BIIF-10 (PRN 08)", "OBJECT_ID": "2015-033A", "EPOCH": "2025-12-17T05:42:17.714592", "MEAN_MOTION": 2.0056549, "ECCENTRICITY": 0.01112523, "INCLINATION": 54.1267, "RA_OF_ASC_NODE": 274.5878, "ARG_OF_PERICENTER": 26.9189, "MEAN_ANOMALY": 333.675, "EPHEMERIS_TYPE": 0, "CLASSIFICATION_TYPE": "U", "NORAD_CAT_ID": 40730, "ELEMENT_SET_NO": 999, "REV_AT_EPOCH": 7634, "BSTAR": 0, "MEAN_MOTION_DOT": -4.6e-07, "MEAN_MOTION_DDOT": 0}, "tle": {"line1": "1 40730U 15033A   25351.23770503 -.00000046  00000+0  00000+0 0  9998", "line2": "2 40730  54.1267 274.5878 0111252  26.9189 333.6750  2.00565490 76347"}}, "geometry": {"type": "Point", "coordinates": [51.38229426153209, 43.43310541438351]}}, {"type": "Feature", "properties": {"norad_id": 41019, "name": "GPS BIIF-11 (PRN 10)", "group": "gps-ops", "lat": 54.212542070704835, "lon": 102.82801204862271, "alt_km": 20441.316615115906, "timestamp": "2025-12-17T21:39:45.947170+00:00", "meta": {"OBJECT_NAME": "GPS BIIF-11 (PRN 10)", "OBJECT_ID": "2015-062A", "EPOCH": "2025-12-17T07:07:49.922112", "MEAN_MOTION": 2.00567224, "ECCENTRICITY": 0.01109439, "INCLINATION": 56.8355, "RA_OF_ASC_NODE": 37.826, "ARG_OF_PERICENTER": 230.0627, "MEAN_ANOMALY": 129.0159, "EPHEMERIS_TYPE": 0, "CLASSIFICATION_TYPE": "U", "NORAD_CAT_ID": 41019, "ELEMENT_SET_NO": 999, "REV_AT_EPOCH": 7418, "BSTAR": 0, "MEAN_MOTION_DOT": -7.6e-07, "MEAN_MOTION_DDOT": 0}, "tle": {"line1": "1 41019U 15062A   25351.29710558 -.00000076  00000+0  00000+0 0  9994", "line2": "2 41019  56.8355  37.8260 0110943 230.0627 129.0159  2.00567224 74188"}}, "geometry": {"type": "Point", "coordinates": [102.82801204862271, 54.212542070704835]}}, {"type": "Feature", "properties": {"norad_id": 41328, "name": "GPS BIIF-12 (PRN 32)", "group": "gps-ops", "lat": 14.234377026726461, "lon": 106.71595801902139, "alt_km": 20349.360065748926, "timestamp": "2025-12-17T21:39:45.947180+00:00", "meta": {"OBJECT_NAME": "GPS BIIF-12 (PRN 32)", "OBJECT_ID": "2016-007A", "EPOCH": "2025-12-17T09:06:47.085696", "MEAN_MOTION": 2.00560552, "ECCENTRICITY": 0.0092397, "INCLINATION": 55.4087, "RA_OF_ASC_NODE": 96.6729, "ARG_OF_PERICENTER": 243.6823, "MEAN_ANOMALY": 115.3496, "EPHEMERIS_TYPE": 0, "CLASSIFICATION_TYPE": "U", "NORAD_CAT_ID": 41328, "ELEMENT_SET_NO": 999, "REV_AT_EPOCH": 7219, "BSTAR": 0, "MEAN_MOTION_DOT": -3.9e-07, "MEAN_MOTION_DDOT": 0}, "tle": {"line1": "1 41328U 16007A   25351.37971164 -.00000039  00000+0  00000+0 0  9997", "line2": "2 41328  55.4087  96.6729 0092397 243.6823 115.3496  2.00560552 72199"}}, "geometry": {"type": "Point", "coordinates": [106.71595801902139, 14.234377026726461]}}, {"type": "Feature", "properties": {"norad_id": 43873, "name": "GPS BIII-1  (PRN 04)", "group": "gps-ops", "lat": -55.554665471779735, "lon": 12.08460151157303, "alt_km": 20165.320392338694, "timestamp": "2025-12-17T21:39:45.947190+00:00", "meta": {"OBJECT_NAME": "GPS BIII-1  (PRN 04)", "OBJECT_ID": "2018-109A", "EPOCH": "2025-12-15T18:29:34.483200", "MEAN_MOTION": 2.00553802, "ECCENTRICITY": 0.00374359, "INCLINATION": 55.5688, "RA_OF_ASC_NODE": 99.4273, "ARG_OF_PERICENTER": 195.145, "MEAN_ANOMALY": 336.5518, "EPHEMERIS_TYPE": 0, "CLASSIFICATION_TYPE": "U", "NORAD_CAT_ID": 43873, "ELEMENT_SET_NO": 999, "REV_AT_EPOCH": 5139, "BSTAR": 0, "MEAN_MOTION_DOT": -3.2e-07, "MEAN_MOTION_DDOT": 0}, "tle": {"line1": "1 43873U 18109A   25349.77053800 -.00000032  00000+0  00000+0 0  9991", "line2": "2 43873  55.5688  99.4273 0037435 195.1450 336.5518  2.00553802 51399"}}, "geometry": {"type": "Point", "coordinates": [12.08460151157303, -55.554665471779735]}}, {"type": "Feature", "properties": {"norad_id": 44506, "name": "GPS BIII-2  (PRN 18)", "group": "gps-ops", "lat": 9.899941248757656, "lon": 151.50158969718058, "alt_km": 20049.07411193257, "timestamp": "2025-12-17T21:39:45.947200+00:00", "meta": {"OBJECT_NAME": "GPS BIII-2  (PRN 18)", "OBJECT_ID": "2019-056A", "EPOCH": "2025-12-17T03:59:08.759040", "MEAN_MOTION": 2.00566605, "ECCENTRICITY": 0.00577134, "INCLINATION": 55.7199, "RA_OF_ASC_NODE": 338.3768, "ARG_OF_PERICENTER": 198.5058, "MEAN_ANOMALY": 157.947, "EPHEMERIS_TYPE": 0, "CLASSIFICATION_TYPE": "U", "NORAD_CAT_ID": 44506, "ELEMENT_SET_NO": 999, "REV_AT_EPOCH": 4641, "BSTAR": 0, "MEAN_MOTION_DOT": -8.7e-07, "MEAN_MOTION_DDOT": 0}, "tle": {"line1": "1 44506U 19056A   25351.16607360 -.00000087  00000+0  00000+0 0  9999", "line2": "2 44506  55.7199 338.3768 0057713 198.5058 157.9470  2.00566605 46412"}}, "geometry": {"type": "Point", "coordinates": [151.50158969718058, 9.899941248757656]}}, {"type": "Feature", "properties": {"norad_id": 45854, "name": "GPS BIII-3  (PRN 23)", "group": "gps-ops", "lat": 50.90662609116425, "lon": 161.61509234273586, "alt_km": 20181.555994631384, "timestamp": "2025-12-17T21:39:45.947225+00:00", "meta": {"OBJECT_NAME": "GPS BIII-3  (PRN 23)", "OBJECT_ID": "2020-041A", "EPOCH": "2025-12-17T06:02:11.568192", "MEAN_MOTION": 2.00562016, "ECCENTRICITY": 0.00605926, "INCLINATION": 56.5499, "RA_OF_ASC_NODE": 36.0099, "ARG_OF_PERICENTER": 203.5861, "MEAN_ANOMALY": 158.5614, "EPHEMERIS_TYPE": 0, "CLASSIFICATION_TYPE": "U", "NORAD_CAT_ID": 45854, "ELEMENT_SET_NO": 999, "REV_AT_EPOCH": 4039, "BSTAR": 0, "MEAN_MOTION_DOT": -7.7e-07, "MEAN_MOTION_DDOT": 0}, "tle": {"line1": "1 45854U 20041A   25351.25152278 -.00000077  00000+0  00000+0 0  9994", "line2": "2 45854  56.5499  36.0099 0060592 203.5861 158.5614  2.00562016 40398"}}, "geometry": {"type": "Point", "coordinates": [161.61509234273586, 50.90662609116425]}}, {"type": "Feature", "properties": {"norad_id": 46826, "name": "GPS BIII-4  (PRN 14)", "group": "gps-ops", "lat": 53.370134827350824, "lon": -64.20459068939734, "alt_km": 20263.098443430066, "timestamp": "2025-12-17T21:39:45.947237+00:00", "meta": {"OBJECT_NAME": "GPS BIII-4  (PRN 14)", "OBJECT_ID": "2020-078A", "EPOCH": "2025-12-16T01:06:13.902336", "MEAN_MOTION": 2.00566891, "ECCENTRICITY": 0.00647559, "INCLINATION": 54.0145, "RA_OF_ASC_NODE": 218.2068, "ARG_OF_PERICENTER": 203.3837, "MEAN_ANOMALY": 339.3927, "EPHEMERIS_TYPE": 0, "CLASSIFICATION_TYPE": "U", "NORAD_CAT_ID": 46826, "ELEMENT_SET_NO": 999, "REV_AT_EPOCH": 3783, "BSTAR": 0, "MEAN_MOTION_DOT": 6.7e-07, "MEAN_MOTION_DDOT": 0}, "tle": {"line1": "1 46826U 20078A   25350.04599424  .00000067  00000+0  00000+0 0  9996", "line2": "2 46826  54.0145 218.2068 0064755 203.3837 339.3927  2.00566891 37831"}}, "geometry": {"type": "Point", "coordinates": [-64.20459068939734, 53.370134827350824]}}, {"type": "Feature", "properties": {"norad_id": 48859, "name": "GPS BIII-5  (PRN 11)", "group": "gps-ops", "lat": -55.21414249888778, "lon": -112.67666469708081, "alt_km": 20135.122778329347, "timestamp": "2025-12-17T21:39:45.947247+00:00", "meta": {"OBJECT_NAME": "GPS BIII-5  (PRN 11)", "OBJECT_ID": "2021-054A", "EPOCH": "2025-12-08T04:14:32.423424", "MEAN_MOTION": 2.00553627, "ECCENTRICITY": 0.0024678, "INCLINATION": 55.2581, "RA_OF_ASC_NODE": 340.1367, "ARG_OF_PERICENTER": 233.3994, "MEAN_ANOMALY": 212.8593, "EPHEMERIS_TYPE": 0, "CLASSIFICATION_TYPE": "U", "NORAD_CAT_ID": 48859, "ELEMENT_SET_NO": 999, "REV_AT_EPOCH": 3292, "BSTAR": 0, "MEAN_MOTION_DOT": -8.6e-07, "MEAN_MOTION_DDOT": 0}, "tle": {"line1": "1 48859U 21054A   25342.17676416 -.00000086  00000+0  00000+0 0  9993", "line2": "2 48859  55.2581 340.1367 0024678 233.3994 212.8593  2.00553627 32922"}}, "geometry": {"type": "Point", "coordinates": [-112.67666469708081, -55.21414249888778]}}, {"type": "Feature", "properties": {"norad_id": 55268, "name": "GPS BIII-6  (PRN 28)", "group": "gps-ops", "lat": -38.30628460568647, "lon": 122.15898385530981, "alt_km": 20180.680113484552, "timestamp": "2025-12-17T21:39:45.947258+00:00", "meta": {"OBJECT_NAME": "GPS BIII-6  (PRN 28)", "OBJECT_ID": "2023-009A", "EPOCH": "2025-12-17T05:26:38.724576", "MEAN_MOTION": 2.00555443, "ECCENTRICITY": 0.00036765, "INCLINATION": 55.1057, "RA_OF_ASC_NODE": 155.6691, "ARG_OF_PERICENTER": 356.3023, "MEAN_ANOMALY": 186.6763, "EPHEMERIS_TYPE": 0, "CLASSIFICATION_TYPE": "U", "NORAD_CAT_ID": 55268, "ELEMENT_SET_NO": 999, "REV_AT_EPOCH": 2159, "BSTAR": 0, "MEAN_MOTION_DOT": 7.9e-07, "MEAN_MOTION_DDOT": 0}, "tle": {"line1": "1 55268U 23009A   25351.22683709  .00000079  00000+0  00000+0 0  9997", "line2": "2 55268  55.1057 155.6691 0003676 356.3023 186.6763  2.00555443 21590"}}, "geometry": {"type": "Point", "coordinates": [122.15898385530981, -38.30628460568647]}}]}